STARLINK-36927          
1 67941U 26037K   26076.27247730 -.00920602  00000+0 -51888-2 0  9990
2 67941  42.9984 151.9812 0001398 179.8528 180.2344 15.80607965  4455
STARLINK-36914          
1 67942U 26037L   26076.27519388  .00185857  00000+0  86268-3 0  9996
2 67942  42.9981 152.0040 0001663 236.1644 123.9070 15.82106988  4450
STARLINK-36851          
1 67943U 26037M   26076.21135836 -.00279968  00000+0 -13917-2 0  9992
2 67943  42.9981 152.3854 0003214 341.7317  18.3439 15.81677084  4445
STARLINK-36892          
1 67944U 26037N   26076.27294973  .00015214  00000+0  74697-4 0  9991
2 67944  42.9980 151.9860 0001364 221.9531 138.1236 15.82003539  4454
STARLINK-36908          
1 67945U 26037P   26076.27144772  .00183061  00000+0  85013-3 0  9992
2 67945  42.9984 151.9736 0001175 259.3603 100.7136 15.82104287  4452
STARLINK-36909          
1 67946U 26037Q   26076.27069604  .00288061  00000+0  13175-2 0  9998
2 67946  42.9985 151.9669 0001454 243.7058 116.3665 15.82145722  4459
STARLINK-36920          
1 67947U 26037R   26075.51239524 -.00072225  00000+0 -34658-3 0  9990
2 67947  42.9981 156.6035 0001765 192.0581 168.0249 15.81813874  4335
STARLINK-36873          
1 67948U 26037S   26075.57514467 -.00216029  00000+0 -11301-2 0  9990
2 67948  42.9989 156.2142 0004524 335.0505  25.0147 15.80399868  4341
STARLINK-36863          
1 67949U 26037T   26075.57399211  .00221074  00000+0  10232-2 0  9995
2 67949  42.9983 156.2046 0001483 305.0323  55.0409 15.82071332  4344
STARLINK-36887          
1 67950U 26037U   26076.25002315 -.01912490  00000+0 -19434-1 0  9993
2 67950  42.9997 152.2824 0001101 275.3469 251.4506 15.67360926  4419
STARLINK-36897          
1 67951U 26037V   26076.20396943  .00473020  00000+0  21433-2 0  9993
2 67951  42.9986 152.3251 0006254 245.4676 114.5544 15.81854708  4441
STARLINK-36381          
1 67952U 26037W   26075.57100050 -.00027192  00000+0 -12748-3 0  9992
2 67952  42.9982 156.1801 0001021 306.5215  53.5562 15.81938385  4341
STARLINK-36824          
1 67953U 26037X   26076.25002315 -.01905388  00000+0 -17767-1 0  9991
2 67953  43.0001 152.2011 0000958 275.2183 284.3263 15.69418888  4417
STARLINK-36869          
1 67954U 26037Y   26076.25002315 -.01899289  00000+0 -17861-1 0  9999
2 67954  42.9996 152.1849 0000944 273.7672 292.0159 15.69207007  4417
STARLINK-36872          
1 67955U 26037Z   26076.32633905  .00179598  00000+0  83362-3 0  9995
2 67955  42.9987 151.5169 0001360 227.1553 132.9205 15.82124992  4465
STARLINK-36918          
1 67956U 26037AA  26075.56799068  .00140757  00000+0  65764-3 0  9995
2 67956  42.9987 156.1542 0002265 256.0433 104.0187 15.82097144  4349
