[{"OBJECT_NAME":"STARLINK-36927","OBJECT_ID":"2026-037K","EPOCH":"2026-03-17T06:32:22.038720","MEAN_MOTION":15.80607965,"ECCENTRICITY":0.0001398,"INCLINATION":42.9984,"RA_OF_ASC_NODE":151.9812,"ARG_OF_PERICENTER":179.8528,"MEAN_ANOMALY":180.2344,"EPHEMERIS_TYPE":0,"CLASSIFICATION_TYPE":"U","NORAD_CAT_ID":67941,"ELEMENT_SET_NO":999,"REV_AT_EPOCH":445,"BSTAR":-0.0051888194,"MEAN_MOTION_DOT":-0.00920602,"MEAN_MOTION_DDOT":0},{"OBJECT_NAME":"STARLINK-36914","OBJECT_ID":"2026-037L","EPOCH":"2026-03-17T06:36:16.751232","MEAN_MOTION":15.82106988,"ECCENTRICITY":0.0001663,"INCLINATION":42.9981,"RA_OF_ASC_NODE":152.004,"ARG_OF_PERICENTER":236.1644,"MEAN_ANOMALY":123.907,"EPHEMERIS_TYPE":0,"CLASSIFICATION_TYPE":"U","NORAD_CAT_ID":67942,"ELEMENT_SET_NO":999,"REV_AT_EPOCH":445,"BSTAR":0.00086267545,"MEAN_MOTION_DOT":0.00185857,"MEAN_MOTION_DDOT":0},{"OBJECT_NAME":"STARLINK-36851","OBJECT_ID":"2026-037M","EPOCH":"2026-03-17T05:04:21.362304","MEAN_MOTION":15.81677084,"ECCENTRICITY":0.00032141,"INCLINATION":42.9981,"RA_OF_ASC_NODE":152.3854,"ARG_OF_PERICENTER":341.7317,"MEAN_ANOMALY":18.3439,"EPHEMERIS_TYPE":0,"CLASSIFICATION_TYPE":"U","NORAD_CAT_ID":67943,"ELEMENT_SET_NO":999,"REV_AT_EPOCH":444,"BSTAR":-0.0013916551,"MEAN_MOTION_DOT":-0.00279968,"MEAN_MOTION_DDOT":0},{"OBJECT_NAME":"STARLINK-36892","OBJECT_ID":"2026-037N","EPOCH":"2026-03-17T06:33:02.856672","MEAN_MOTION":15.82003539,"ECCENTRICITY":0.00013645,"INCLINATION":42.998,"RA_OF_ASC_NODE":151.986,"ARG_OF_PERICENTER":221.9531,"MEAN_ANOMALY":138.1236,"EPHEMERIS_TYPE":0,"CLASSIFICATION_TYPE":"U","NORAD_CAT_ID":67944,"ELEMENT_SET_NO":999,"REV_AT_EPOCH":445,"BSTAR":7.4697077e-5,"MEAN_MOTION_DOT":0.00015214,"MEAN_MOTION_DDOT":0},{"OBJECT_NAME":"STARLINK-36908","OBJECT_ID":"2026-037P","EPOCH":"2026-03-17T06:30:53.083008","MEAN_MOTION":15.82104287,"ECCENTRICITY":0.00011757,"INCLINATION":42.9984,"RA_OF_ASC_NODE":151.9736,"ARG_OF_PERICENTER":259.3603,"MEAN_ANOMALY":100.7136,"EPHEMERIS_TYPE":0,"CLASSIFICATION_TYPE":"U","NORAD_CAT_ID":67945,"ELEMENT_SET_NO":999,"REV_AT_EPOCH":445,"BSTAR":0.00085013355,"MEAN_MOTION_DOT":0.00183061,"MEAN_MOTION_DDOT":0},{"OBJECT_NAME":"STARLINK-36909","OBJECT_ID":"2026-037Q","EPOCH":"2026-03-17T06:29:48.137856","MEAN_MOTION":15.82145722,"ECCENTRICITY":0.00014547,"INCLINATION":42.9985,"RA_OF_ASC_NODE":151.9669,"ARG_OF_PERICENTER":243.7058,"MEAN_ANOMALY":116.3665,"EPHEMERIS_TYPE":0,"CLASSIFICATION_TYPE":"U","NORAD_CAT_ID":67946,"ELEMENT_SET_NO":999,"REV_AT_EPOCH":445,"BSTAR":0.0013175232,"MEAN_MOTION_DOT":0.00288061,"MEAN_MOTION_DDOT":0},{"OBJECT_NAME":"STARLINK-36920","OBJECT_ID":"2026-037R","EPOCH":"2026-03-16T12:17:50.948736","MEAN_MOTION":15.81813874,"ECCENTRICITY":0.00017659,"INCLINATION":42.9981,"RA_OF_ASC_NODE":156.6035,"ARG_OF_PERICENTER":192.0581,"MEAN_ANOMALY":168.0249,"EPHEMERIS_TYPE":0,"CLASSIFICATION_TYPE":"U","NORAD_CAT_ID":67947,"ELEMENT_SET_NO":999,"REV_AT_EPOCH":433,"BSTAR":-0.00034658101,"MEAN_MOTION_DOT":-0.00072225,"MEAN_MOTION_DDOT":0},{"OBJECT_NAME":"STARLINK-36873","OBJECT_ID":"2026-037S","EPOCH":"2026-03-16T13:48:12.499488","MEAN_MOTION":15.80399868,"ECCENTRICITY":0.00045245,"INCLINATION":42.9989,"RA_OF_ASC_NODE":156.2142,"ARG_OF_PERICENTER":335.0505,"MEAN_ANOMALY":25.0147,"EPHEMERIS_TYPE":0,"CLASSIFICATION_TYPE":"U","NORAD_CAT_ID":67948,"ELEMENT_SET_NO":999,"REV_AT_EPOCH":434,"BSTAR":-0.0011300564,"MEAN_MOTION_DOT":-0.00216029,"MEAN_MOTION_DDOT":0},{"OBJECT_NAME":"STARLINK-36863","OBJECT_ID":"2026-037T","EPOCH":"2026-03-16T13:46:32.918304","MEAN_MOTION":15.82071332,"ECCENTRICITY":0.00014834,"INCLINATION":42.9983,"RA_OF_ASC_NODE":156.2046,"ARG_OF_PERICENTER":305.0323,"MEAN_ANOMALY":55.0409,"EPHEMERIS_TYPE":0,"CLASSIFICATION_TYPE":"U","NORAD_CAT_ID":67949,"ELEMENT_SET_NO":999,"REV_AT_EPOCH":434,"BSTAR":0.0010231882,"MEAN_MOTION_DOT":0.00221074,"MEAN_MOTION_DDOT":0},{"OBJECT_NAME":"STARLINK-36887","OBJECT_ID":"2026-037U","EPOCH":"2026-03-17T06:00:02.000160","MEAN_MOTION":15.67360926,"ECCENTRICITY":0.00011011,"INCLINATION":42.9997,"RA_OF_ASC_NODE":152.2824,"ARG_OF_PERICENTER":275.3469,"MEAN_ANOMALY":251.4506,"EPHEMERIS_TYPE":0,"CLASSIFICATION_TYPE":"U","NORAD_CAT_ID":67950,"ELEMENT_SET_NO":999,"REV_AT_EPOCH":441,"BSTAR":-0.019433503,"MEAN_MOTION_DOT":-0.0191249,"MEAN_MOTION_DDOT":0},{"OBJECT_NAME":"STARLINK-36897","OBJECT_ID":"2026-037V","EPOCH":"2026-03-17T04:53:42.958752","MEAN_MOTION":15.81854708,"ECCENTRICITY":0.00062542,"INCLINATION":42.9986,"RA_OF_ASC_NODE":152.3251,"ARG_OF_PERICENTER":245.4676,"MEAN_ANOMALY":114.5544,"EPHEMERIS_TYPE":0,"CLASSIFICATION_TYPE":"U","NORAD_CAT_ID":67951,"ELEMENT_SET_NO":999,"REV_AT_EPOCH":444,"BSTAR":0.0021432956,"MEAN_MOTION_DOT":0.0047302,"MEAN_MOTION_DDOT":0},{"OBJECT_NAME":"STARLINK-36381","OBJECT_ID":"2026-037W","EPOCH":"2026-03-16T13:42:14.443200","MEAN_MOTION":15.81938385,"ECCENTRICITY":0.00010214,"INCLINATION":42.9982,"RA_OF_ASC_NODE":156.1801,"ARG_OF_PERICENTER":306.5215,"MEAN_ANOMALY":53.5562,"EPHEMERIS_TYPE":0,"CLASSIFICATION_TYPE":"U","NORAD_CAT_ID":67952,"ELEMENT_SET_NO":999,"REV_AT_EPOCH":434,"BSTAR":-0.00012748186,"MEAN_MOTION_DOT":-0.00027192,"MEAN_MOTION_DDOT":0},{"OBJECT_NAME":"STARLINK-36824","OBJECT_ID":"2026-037X","EPOCH":"2026-03-17T06:00:02.000160","MEAN_MOTION":15.69418888,"ECCENTRICITY":9.585e-5,"INCLINATION":43.0001,"RA_OF_ASC_NODE":152.2011,"ARG_OF_PERICENTER":275.2183,"MEAN_ANOMALY":284.3263,"EPHEMERIS_TYPE":0,"CLASSIFICATION_TYPE":"U","NORAD_CAT_ID":67953,"ELEMENT_SET_NO":999,"REV_AT_EPOCH":441,"BSTAR":-0.017767278,"MEAN_MOTION_DOT":-0.01905388,"MEAN_MOTION_DDOT":0},{"OBJECT_NAME":"STARLINK-36869","OBJECT_ID":"2026-037Y","EPOCH":"2026-03-17T06:00:02.000160","MEAN_MOTION":15.69207007,"ECCENTRICITY":9.449e-5,"INCLINATION":42.9996,"RA_OF_ASC_NODE":152.1849,"ARG_OF_PERICENTER":273.7672,"MEAN_ANOMALY":292.0159,"EPHEMERIS_TYPE":0,"CLASSIFICATION_TYPE":"U","NORAD_CAT_ID":67954,"ELEMENT_SET_NO":999,"REV_AT_EPOCH":441,"BSTAR":-0.017861041,"MEAN_MOTION_DOT":-0.01899289,"MEAN_MOTION_DDOT":0},{"OBJECT_NAME":"STARLINK-36872","OBJECT_ID":"2026-037Z","EPOCH":"2026-03-17T07:49:55.693920","MEAN_MOTION":15.82124992,"ECCENTRICITY":0.00013604,"INCLINATION":42.9987,"RA_OF_ASC_NODE":151.5169,"ARG_OF_PERICENTER":227.1553,"MEAN_ANOMALY":132.9205,"EPHEMERIS_TYPE":0,"CLASSIFICATION_TYPE":"U","NORAD_CAT_ID":67955,"ELEMENT_SET_NO":999,"REV_AT_EPOCH":446,"BSTAR":0.00083362372,"MEAN_MOTION_DOT":0.00179598,"MEAN_MOTION_DDOT":0},{"OBJECT_NAME":"STARLINK-36918","OBJECT_ID":"2026-037AA","EPOCH":"2026-03-16T13:37:54.394752","MEAN_MOTION":15.82097144,"ECCENTRICITY":0.00022656,"INCLINATION":42.9987,"RA_OF_ASC_NODE":156.1542,"ARG_OF_PERICENTER":256.0433,"MEAN_ANOMALY":104.0187,"EPHEMERIS_TYPE":0,"CLASSIFICATION_TYPE":"U","NORAD_CAT_ID":67956,"ELEMENT_SET_NO":999,"REV_AT_EPOCH":434,"BSTAR":0.00065764367,"MEAN_MOTION_DOT":0.00140757,"MEAN_MOTION_DDOT":0}]
